{
    "week": 288,
    "satellites": [
        {
            "Name": "GSAT0101 (GALILEO-PFM)",
            "Line1": "1 37846U 11060A   24287.04023665 -.00000079  00000+0  00000+0 0  9990",
            "Line2": "2 37846  57.1238 358.3493 0000606 302.5270  57.5211  1.70475666 80687",
            "SatelliteNumber": "37846",
            "Classification": "U",
            "LaunchYear": "11",
            "LaunchNumber": "060",
            "PieceOfLaunch": "A",
            "EpochYear": "24",
            "EpochDay": 287.04023665,
            "FirstDerivativeMeanMotion": -7.9e-07,
            "SecondDerivativeMeanMotion": "00000+0",
            "BSTAR": "00000+0",
            "SetNumber": "999",
            "Inclination": 57.1238,
            "RAAN": 358.3493,
            "Eccentricity": 6.06e-05,
            "ArgumentOfPerigee": 302.527,
            "MeanAnomaly": 57.5211,
            "MeanMotion": 1.70475666,
            "RevolutionNumber": "8068"
        },
        {
            "Name": "GSAT0102 (GALILEO-FM2)",
            "Line1": "1 37847U 11060B   24291.06854936 -.00000088  00000+0  00000+0 0  9991",
            "Line2": "2 37847  57.1241 358.2403 0002471 298.0680  59.7071  1.70475185 80750",
            "SatelliteNumber": "37847",
            "Classification": "U",
            "LaunchYear": "11",
            "LaunchNumber": "060",
            "PieceOfLaunch": "B",
            "EpochYear": "24",
            "EpochDay": 291.06854936,
            "FirstDerivativeMeanMotion": -8.8e-07,
            "SecondDerivativeMeanMotion": "00000+0",
            "BSTAR": "00000+0",
            "SetNumber": "999",
            "Inclination": 57.1241,
            "RAAN": 358.2403,
            "Eccentricity": 0.0002471,
            "ArgumentOfPerigee": 298.068,
            "MeanAnomaly": 59.7071,
            "MeanMotion": 1.70475185,
            "RevolutionNumber": "8075"
        },
        {
            "Name": "GSAT0103 (GALILEO-FM3)",
            "Line1": "1 38857U 12055A   24290.01263715  .00000075  00000+0  00000+0 0  9996",
            "Line2": "2 38857  55.4614 118.2831 0001890 257.2923 102.7627  1.70473513 74625",
            "SatelliteNumber": "38857",
            "Classification": "U",
            "LaunchYear": "12",
            "LaunchNumber": "055",
            "PieceOfLaunch": "A",
            "EpochYear": "24",
            "EpochDay": 290.01263715,
            "FirstDerivativeMeanMotion": 7.5e-07,
            "SecondDerivativeMeanMotion": "00000+0",
            "BSTAR": "00000+0",
            "SetNumber": "999",
            "Inclination": 55.4614,
            "RAAN": 118.2831,
            "Eccentricity": 0.000189,
            "ArgumentOfPerigee": 257.2923,
            "MeanAnomaly": 102.7627,
            "MeanMotion": 1.70473513,
            "RevolutionNumber": "7462"
        },
        {
            "Name": "GSAT0201 (GALILEO 5)",
            "Line1": "1 40128U 14050A   24291.43839547 -.00000050  00000+0  00000+0 0  9990",
            "Line2": "2 40128  49.5339 298.1418 1614214 156.0281 212.4219  1.85519402 67048",
            "SatelliteNumber": "40128",
            "Classification": "U",
            "LaunchYear": "14",
            "LaunchNumber": "050",
            "PieceOfLaunch": "A",
            "EpochYear": "24",
            "EpochDay": 291.43839547,
            "FirstDerivativeMeanMotion": -5e-07,
            "SecondDerivativeMeanMotion": "00000+0",
            "BSTAR": "00000+0",
            "SetNumber": "999",
            "Inclination": 49.5339,
            "RAAN": 298.1418,
            "Eccentricity": 0.1614214,
            "ArgumentOfPerigee": 156.0281,
            "MeanAnomaly": 212.4219,
            "MeanMotion": 1.85519402,
            "RevolutionNumber": "6704"
        },
        {
            "Name": "GSAT0202 (GALILEO 6)",
            "Line1": "1 40129U 14050B   24291.15724605 -.00000048  00000+0  00000+0 0  9995",
            "Line2": "2 40129  49.5506 297.2315 1613420 156.8108 211.3809  1.85520090 69203",
            "SatelliteNumber": "40129",
            "Classification": "U",
            "LaunchYear": "14",
            "LaunchNumber": "050",
            "PieceOfLaunch": "B",
            "EpochYear": "24",
            "EpochDay": 291.15724605,
            "FirstDerivativeMeanMotion": -4.8e-07,
            "SecondDerivativeMeanMotion": "00000+0",
            "BSTAR": "00000+0",
            "SetNumber": "999",
            "Inclination": 49.5506,
            "RAAN": 297.2315,
            "Eccentricity": 0.161342,
            "ArgumentOfPerigee": 156.8108,
            "MeanAnomaly": 211.3809,
            "MeanMotion": 1.8552009,
            "RevolutionNumber": "6920"
        },
        {
            "Name": "GSAT0203 (GALILEO 7)",
            "Line1": "1 40544U 15017A   24291.51185492 -.00000090  00000+0  00000+0 0  9992",
            "Line2": "2 40544  56.9189 358.1454 0004892 246.6071 113.4012  1.70476085 58830",
            "SatelliteNumber": "40544",
            "Classification": "U",
            "LaunchYear": "15",
            "LaunchNumber": "017",
            "PieceOfLaunch": "A",
            "EpochYear": "24",
            "EpochDay": 291.51185492,
            "FirstDerivativeMeanMotion": -9e-07,
            "SecondDerivativeMeanMotion": "00000+0",
            "BSTAR": "00000+0",
            "SetNumber": "999",
            "Inclination": 56.9189,
            "RAAN": 358.1454,
            "Eccentricity": 0.0004892,
            "ArgumentOfPerigee": 246.6071,
            "MeanAnomaly": 113.4012,
            "MeanMotion": 1.70476085,
            "RevolutionNumber": "5883"
        },
        {
            "Name": "GSAT0204 (GALILEO 8)",
            "Line1": "1 40545U 15017B   24289.42004815 -.00000084  00000+0  00000+0 0  9992",
            "Line2": "2 40545  56.9245 358.2183 0004926 234.4839 125.5273  1.70475616 21853",
            "SatelliteNumber": "40545",
            "Classification": "U",
            "LaunchYear": "15",
            "LaunchNumber": "017",
            "PieceOfLaunch": "B",
            "EpochYear": "24",
            "EpochDay": 289.42004815,
            "FirstDerivativeMeanMotion": -8.4e-07,
            "SecondDerivativeMeanMotion": "00000+0",
            "BSTAR": "00000+0",
            "SetNumber": "999",
            "Inclination": 56.9245,
            "RAAN": 358.2183,
            "Eccentricity": 0.0004926,
            "ArgumentOfPerigee": 234.4839,
            "MeanAnomaly": 125.5273,
            "MeanMotion": 1.70475616,
            "RevolutionNumber": "2185"
        },
        {
            "Name": "GSAT0205 (GALILEO 9)",
            "Line1": "1 40889U 15045A   24288.01500523  .00000000  00000+0  00000+0 0  9992",
            "Line2": "2 40889  55.1691 238.4873 0004171  18.0759 341.9076  1.70472888 56596",
            "SatelliteNumber": "40889",
            "Classification": "U",
            "LaunchYear": "15",
            "LaunchNumber": "045",
            "PieceOfLaunch": "A",
            "EpochYear": "24",
            "EpochDay": 288.01500523,
            "FirstDerivativeMeanMotion": 0.0,
            "SecondDerivativeMeanMotion": "00000+0",
            "BSTAR": "00000+0",
            "SetNumber": "999",
            "Inclination": 55.1691,
            "RAAN": 238.4873,
            "Eccentricity": 0.0004171,
            "ArgumentOfPerigee": 18.0759,
            "MeanAnomaly": 341.9076,
            "MeanMotion": 1.70472888,
            "RevolutionNumber": "5659"
        },
        {
            "Name": "GSAT0206 (GALILEO 10)",
            "Line1": "1 40890U 15045B   24291.16857868 -.00000010  00000+0  00000+0 0  9993",
            "Line2": "2 40890  55.1662 238.3956 0002505 359.2569   0.7063  1.70472890 56673",
            "SatelliteNumber": "40890",
            "Classification": "U",
            "LaunchYear": "15",
            "LaunchNumber": "045",
            "PieceOfLaunch": "B",
            "EpochYear": "24",
            "EpochDay": 291.16857868,
            "FirstDerivativeMeanMotion": -1e-07,
            "SecondDerivativeMeanMotion": "00000+0",
            "BSTAR": "00000+0",
            "SetNumber": "999",
            "Inclination": 55.1662,
            "RAAN": 238.3956,
            "Eccentricity": 0.0002505,
            "ArgumentOfPerigee": 359.2569,
            "MeanAnomaly": 0.7063,
            "MeanMotion": 1.7047289,
            "RevolutionNumber": "5667"
        },
        {
            "Name": "GSAT0209 (GALILEO 12)",
            "Line1": "1 41174U 15079A   24290.75181252  .00000070  00000+0  00000+0 0  9992",
            "Line2": "2 41174  55.4803 117.9730 0002205 357.8588   2.2109  1.70474139 54408",
            "SatelliteNumber": "41174",
            "Classification": "U",
            "LaunchYear": "15",
            "LaunchNumber": "079",
            "PieceOfLaunch": "A",
            "EpochYear": "24",
            "EpochDay": 290.75181252,
            "FirstDerivativeMeanMotion": 7e-07,
            "SecondDerivativeMeanMotion": "00000+0",
            "BSTAR": "00000+0",
            "SetNumber": "999",
            "Inclination": 55.4803,
            "RAAN": 117.973,
            "Eccentricity": 0.0002205,
            "ArgumentOfPerigee": 357.8588,
            "MeanAnomaly": 2.2109,
            "MeanMotion": 1.70474139,
            "RevolutionNumber": "5440"
        }
    ]
}